{"fetched_at":"2026-03-29T16:36:15Z","count":15609,"tles":[{"name":"STARLINK-35969","line1":"1 66523U 25265H   26087.91007612  .00034330  00000+0  12512-2 0  9996","line2":"2 66523  42.9971 169.3235 0000927 297.4949  62.5808 15.27581048 20054","category":"Starlink"}]}